CSS (TIANHE)            
1 48274U 21035A   24237.46292917  .00052716  00000+0  59322-3 0  9998
2 48274  41.4694  27.0441 0002958 294.3283  65.7247 15.61709592189776
